SPACEMOBILE-004         
1 61049U 24163E   26204.11393918  .00021285  00000+0  96977-3 0  9993
2 61049  52.9731 143.7101 0005257 250.7696 109.2730 15.20626990103231
CZ-8A R/B               
1 66004U 25231K   26204.45678364 -.00000029  00000+0  48577-4 0  9992
2 66004  50.0026 245.0095 0116538 351.7055   8.1933 14.30164009 40136
SZ-21 MODULE            
1 66515U 25246C   26203.97462332  .00060021  00000+0  31977-3 0  9999
2 66515  41.4724  83.9224 0009494 269.0433  90.9325 15.79442093 39394
SPACEMOBILE-006         
1 67232U 25309A   26204.30550480  .00002971  00000+0  15662-3 0  9999
2 67232  52.9955 166.1784 0009444 243.3198 116.6829 15.18692366 32084
SPACEMOBILE-008         
1 69589U 26139A   26204.41099118  .00000635  00000+0  52702-4 0  9998
2 69589  52.9953  98.1065 0005414  74.4796 285.6792 15.12816135  5469
SPACEMOBILE-009         
1 69590U 26139B   26204.41351944  .00001280  00000+0  89219-4 0  9998
2 69590  52.9945  98.1165 0005591  72.4156 287.7445 15.12716576  5463
SPACEMOBILE-010         
1 69591U 26139C   26204.41752193  .00001341  00000+0  93062-4 0  9999
2 69591  52.9950  98.1442 0005627  64.9779 295.1795 15.12553810  5477
